{
    "links": {
        "self": "http://www.neowsapp.com/rest/v1/neo/3102710?api_key=iIulBulltgU6a56xZRHN4H3l9WmuAYTsLGpBGhQ2"
    },
    "id": "3102710",
    "neo_reference_id": "3102710",
    "name": "(2001 YO2)",
    "designation": "2001 YO2",
    "nasa_jpl_url": "http://ssd.jpl.nasa.gov/sbdb.cgi?sstr=3102710",
    "absolute_magnitude_h": 21.0,
    "estimated_diameter": {
        "kilometers": {
            "estimated_diameter_min": 0.1677084622,
            "estimated_diameter_max": 0.3750075218
        },
        "meters": {
            "estimated_diameter_min": 167.7084621628,
            "estimated_diameter_max": 375.0075217981
        },
        "miles": {
            "estimated_diameter_min": 0.1042091748,
            "estimated_diameter_max": 0.2330187988
        },
        "feet": {
            "estimated_diameter_min": 550.2246310023,
            "estimated_diameter_max": 1230.3396778159
        }
    },
    "is_potentially_hazardous_asteroid": false,
    "close_approach_data": [
        {
            "close_approach_date": "2000-09-21",
            "close_approach_date_full": "2000-Sep-21 13:05",
            "epoch_date_close_approach": 969541500000,
            "relative_velocity": {
                "kilometers_per_second": "45.1417074937",
                "kilometers_per_hour": "162510.1469774154",
                "miles_per_hour": "100977.4854927168"
            },
            "miss_distance": {
                "astronomical": "0.0789347021",
                "lunar": "30.7055991169",
                "kilometers": "11808463.303244527",
                "miles": "7337438.8550753926"
            },
            "orbiting_body": "Merc"
        },
        {
            "close_approach_date": "2001-12-29",
            "close_approach_date_full": "2001-Dec-29 00:11",
            "epoch_date_close_approach": 1009584660000,
            "relative_velocity": {
                "kilometers_per_second": "26.8165751692",
                "kilometers_per_hour": "96539.6706091445",
                "miles_per_hour": "59985.9969959987"
            },
            "miss_distance": {
                "astronomical": "0.2526854848",
                "lunar": "98.2946535872",
                "kilometers": "37801210.305997376",
                "miles": "23488582.9040847488"
            },
            "orbiting_body": "Earth"
        },
        {
            "close_approach_date": "2004-12-20",
            "close_approach_date_full": "2004-Dec-20 13:10",
            "epoch_date_close_approach": 1103548200000,
            "relative_velocity": {
                "kilometers_per_second": "33.3836918257",
                "kilometers_per_hour": "120181.2905726078",
                "miles_per_hour": "74675.9802449629"
            },
            "miss_distance": {
                "astronomical": "0.1896396192",
                "lunar": "73.7698118688",
                "kilometers": "28369683.099931104",
                "miles": "17628103.6522690752"
            },
            "orbiting_body": "Earth"
        }
    ],
    "orbital_data": {
        "orbit_id": "11",
        "orbit_determination_date": "2017-04-06 09:15:40",
        "first_observation_date": "2001-12-18",
        "last_observation_date": "2002-01-11",
        "data_arc_in_days": 24,
        "observations_used": 25,
        "orbit_uncertainty": "8",
        "minimum_orbit_intersection": ".154028",
        "jupiter_tisserand_invariant": "4.505",
        "epoch_osculation": "2452268.5",
        "eccentricity": ".6882752344705655",
        "semi_major_axis": "1.294112667694038",
        "inclination": "48.01586052268148",
        "ascending_node_longitude": "266.2201806587721",
        "orbital_period": "537.720457524723",
        "perihelion_distance": ".4034069679055951",
        "perihelion_argument": "311.4876761102832",
        "aphelion_distance": "2.184818367482482",
        "perihelion_time": "2452336.880307680068",
        "mean_anomaly": "314.219873132328",
        "mean_motion": ".6694928470030326",
        "equinox": "J2000",
        "orbit_class": {
            "orbit_class_type": "APO",
            "orbit_class_description": "Near-Earth asteroid orbits which cross the Earth’s orbit similar to that of 1862 Apollo",
            "orbit_class_range": "a (semi-major axis) > 1.0 AU; q (perihelion) < 1.017 AU"
        }
    },
    "is_sentry_object": false
}